name,lat,lon,要素,住所,説明
一丁平,35.62643,139.2287,八王子景観100選No.89、八王子八十八景No.1,南浅川町,高尾山から小仏城山へ向かうハイキングコ－スにあり、春はサクラ、夏はヤマユリなど四季折々の自然を満喫できる。
今熊山とミツバツツジ,35.71068,139.21587,八王子景観100選No.88、八王子八十八景No.2,上川町１９,今熊神社をいただく閑静な山。春、山麓に咲くミツバツツジが見事。
片倉城跡公園,35.64022,139.33753,八王子景観100選No.74、八王子八十八景No.3、景観重要公共施設,片倉町２４７５,都指定史跡の片倉城跡がある。カタクリなど植物が豊富で、水車小屋や彫刻などもある。
小宮公園,35.67345,139.34067,八王子八十八景No.4、景観重要公共施設,暁町２丁目４１ー６,丘陵地形を取り入れ、コナラやクヌギなどの美しい雑木林に覆われている。多くの野鳥や昆虫の観察ができる。
清水公園,35.68224,139.31274,八王子景観100選No.39、八王子八十八景No.5,犬目町１４３ー２,川口川沿いにあり、雑木林や湧き水を利用した池やせせらぎなどがある。
陣馬山,35.65189,139.16654,八王子八十八景No.6,上恩方町,標高857ｍ。頂上には空に向かっていななく白馬像があり、都心の超高層ビル群や富士山が望める。
田植風景,35.71363,139.32125,八王子景観100選No.63、八王子八十八景No.7,高月町,高月一帯は八王子の米どころ。5月下旬から田植えが始まる。豊かな秋川の水が注がれ良質の米が生産される。
高尾山,35.62541,139.24374,八王子景観100選No.73、八王子八十八景No.8,高尾町,標高599ｍ。動植物の宝庫で、東京を代表するハイキングコ－スとして四季を通じて親しまれている。明治の森高尾国定公園に指定されている。
高尾山のスギ並木,35.62712,139.25009,八王子景観100選No.55、八王子八十八景No.9,高尾町,薬王院参道に並び、大きいものでは目通り7ｍ、樹高45ｍにも達し、樹齢は約700年と言われている。都指定天然記念物。
高尾梅郷,35.6387,139.25598,八王子景観100選No.90、八王子八十八景No.10,裏高尾町３１３,紅梅・白梅あわせて約1万本の梅の木があり、3月中旬あたりが見頃。花の時期には梅まつりも開催される。
滝山公園,35.7011,139.33093,八王子八十八景No.12、景観重要公共施設,高月町,関東でも最大規模の丘山城と言われる滝山城跡を中心とした自然公園。春には約5000本の桜が咲く。
多摩御陵のケヤキ並木,35.64922,139.28581,八王子景観100選No.52、八王子八十八景No.13,長房町,多摩御陵（武蔵陵墓地）への外参道。160本のケヤキが植えられている。
多摩森林科学園,35.64597,139.27952,八王子八十八景No.14,廿里町１８３３ー８１,森の科学館、樹木園（7ha、1000種）、サクラ保存林（8ha、約250種、2000本）を一般公開している。
田園風景,35.67541,139.22189,八王子八十八景No.15,上恩方町,トラクタ－で田を耕す春の田園風景。市内でもまだこのような光景を目にすることができる。
栃谷戸公園,35.62901,139.31823,八王子景観100選No.75、八王子八十八景No.16,みなみ野５丁目２９,八王子ニュ－タウン内にある、段々畑など里山の風景を再現した公園。田植えなどの体験学習が行われている。展望台から眺める富士山も素晴らしい。
長沼公園,35.6383,139.36853,八王子八十八景No.17、景観重要公共施設,長沼町,丘陵地形をいかした自然豊かな公園。丘の上からは遠く奥多摩の山並みも望め、自然林では野鳥の姿も多く見られる。
富士森公園,35.65093,139.32273,八王子八十八景No.18,台町２丁目２,市民体育館・市民球場・プ－ル・テニスコ－トなどがある市民の憩いの場。春の桜の時期は多くの花見客で賑う。
松木大石宗虎屋敷のサルスベリ,35.62749,139.38797,八王子八十八景No.19,松木２ー４,戦国時代の大石氏の屋敷跡と伝えられるところにあり、8月から9月頃に赤い花が満開になる。市指定天然記念物。
夕やけ小やけふれあいの里,35.66889,139.217,八王子景観100選No.66、八王子八十八景No.20,上恩方町２０３０,園内には体験農園や宿泊施設のほか、前田真三写真ギャラリ－、童謡「夕焼け小焼け」の作詞者・中村雨紅記念コ－ナ－もある。
蓮生寺公園,35.61955,139.39539,八王子八十八景No.21,別所１丁目２８ー１,蓮生寺の北側にある公園。吊橋などもあり、城跡を思わせるような造りとなっている。
浅川の桜並木,35.66608,139.34099,八王子景観100選No.11、八王子八十八景No.22,元横山町１丁目１１ー５,春には浅川の流れに添うように桜の大樹が咲き誇る。
今熊山・金剛の滝,35.71458,139.2141,八王子八十八景No.23,上川町,今熊山の麓にあり、雄滝・雌滝の上下2段からなる見ごたえのある滝。周辺には滝が多く、江戸時代には修験者が滝に打たれて修行したという。
北浅川の見どころ,35.6853,139.28086,八王子景観100選No.18、八王子八十八景No.24,上壱分方町７１ー１,川沿いにメタセコイアの化石など古い地層が見られ、豊かな自然とともに独特な景観を成している。周辺の河川敷は、夏場は草が生茂るため、訪れるには春や秋が適している。
城山・御主殿の滝,35.65201,139.2567,八王子八十八景No.25,元八王子町３丁目,八王子城跡の御主殿跡近くにある。落城の際、城中の婦女子が身を投じたため、城山川の流れが三日三晩赤く染まったという言い伝えがある。
高尾山・琵琶滝,35.62876,139.25885,八王子八十八景No.26,高尾町,登山コ－スの途中にある滝で、蛇滝とともに水の行の修行場となっており、毎年4月1日の滝開きから10月末の滝じまいまで、修行者の姿が見られる。
多摩川の景観,35.69279,139.35766,八王子八十八景No.27、景観重要公共施設,平町、小宮町、高月町,平町周辺の多摩川沿いに広がる美しい緑地。昔、対岸の大神村（現在の昭島市）へ渡る「平の渡し」があった。
長池見附橋,35.61176,139.39244,八王子景観100選No.84、八王子八十八景No.28,別所２丁目５８,長池公園内の池にかかる橋。文明開化時の面影が偲ばれる橋梁として親しまれてきた四谷見附橋を移設した。
萩原橋,35.66619,139.32328,八王子八十八景No.29,元本郷町１丁目,浅川に架る秋川街道の橋。建設費を寄付した製糸家の萩原彦七に因んで名付けられた。
南浅川橋,35.64894,139.29147,八王子景観100選No.17、八王子八十八景No.30,長房町,南浅川に架り、多摩御陵（武蔵陵墓地）への参道となっている。昭和11年（1936）架橋。
陵北大橋からの眺望,35.68109,139.2724,八王子景観100選No.1、八王子八十八景No.31,下恩方町,北浅川と山入川の合流点近くに架る陵北大橋。橋の上からは恩方の豊かな自然を見渡せる。
六本杉公園湧水池,35.64907,139.34159,八王子八十八景No.32,子安町２丁目２６ー９,ＪＲ八王子駅の南側、六本杉公園内にある。夏は涼しさをかもし出している。
安養寺,35.69176,139.29279,八王子八十八景No.33,犬目町１０８４,永和3年（1377）の創建。困民党事件で逮捕・留置された首領・塩野倉之助と多くの農民のために建てられた碑がある。
永林寺,35.63129,139.3823,八王子景観100選No.45、八王子八十八景No.34,下柚木４,戦国時代、滝山城主大石定久が開基となり、叔父である一種長純を開山として創建した。
円通寺,35.71368,139.32025,八王子八十八景No.35,高月町１１５８,天台宗の古寺。903年の創建と伝えられるが、堂宇は戦災で焼失。見事なしだれ桜でも有名。
大久保石見守長安陣屋敷,35.65883,139.32466,八王子景観100選No.51、八王子八十八景No.36,小門町８２,この一帯に関東十八代官の頭大久保石見守長安の屋敷地があった。現在は産千代稲荷神社境内に碑が残る。
絹の道,35.62159,139.35211,八王子景観100選No.47、八王子八十八景No.37、景観重要公共施設,鑓水,幕末期から明治初期まで、八王子から横浜に輸出用生糸を運んでいた道。登り口には「絹の道資料館」がある。
桂福寺,35.70899,139.29599,八王子八十八景No.38,戸吹町１９３,寛永2年（1625）開山、元禄16年（1703）に再建。朱塗りの山門は鐘楼を重ねた珍しい楼門である。
広園寺,35.64708,139.31666,八王子景観100選No.44、八王子八十八景No.39、特に景観上重要な都選定歴史的建造物等,山田町１５７７,1390年の創建で、境内一帯は東京都の史跡に指定されており、建物も4棟が都指定文化財である。
極楽寺,35.66543,139.33117,八王子八十八景No.40,大横町７ー１,八王子城落城により元八王子から移転。戦災からも難を逃れ、山門・本堂・鐘楼等が整った古刹である。
小仏関所,35.64146,139.26635,八王子八十八景No.41,裏高尾町４１９,江戸時代には甲州道中で最も重要視された堅固な関所であった。今でも手形石などが残り、国指定史跡となっている。
子安神社,35.6591,139.34131,八王子景観100選No.49、八王子八十八景No.42,明神町４丁目１０ー３,天平宝字3年（759）淳仁天皇の皇后の安産のために創建されたと伝えられる。昔この神社とその周辺は、船森と呼ばれた森と湧水池で名高かった。
金剛院,35.65685,139.32711,八王子八十八景No.43,上野町３９ー２ 金剛院本堂,寛永8年（1631）の創建と言われている。狩野春笑が描いた西王母六曲屏風などの都指定文化財がある。
浄福寺,35.66735,139.248,八王子八十八景No.44,下恩方町３２５９,寺と裏山を含めた一帯には、14世紀から15世紀の城郭と言われる浄福寺城跡がある。春には見事なしだれ桜も咲く。
真覚寺,35.64817,139.30414,八王子八十八景No.45,散田町５丁目３６ー１０,かつては境内の池にヒキガエルが産卵のために集まり、この様子はカエル合戦と呼ばれ、江戸時代から広く知られていた。6月中旬はアジサイが見頃となる。
相即寺,35.67272,139.30224,八王子八十八景No.46,泉町１１３２,八王子城の北東に位置することから、かつては城の鬼門除けとしての役割を担った。ランドセル地蔵があることでも有名。
高尾山薬王院,35.6259,139.25028,八王子景観100選No.54、八王子八十八景No.47,高尾町２１７７,真言宗智山派の大本山。744年に行基菩薩により開山されたとの言い伝えがある。四天王を安置した総桧造りの勇壮な山門、仁王門、本堂等がある。
多摩御陵（武蔵陵墓地）,35.65114,139.2815,八王子景観100選No.50、八王子八十八景No.48,長房町１８３３,天皇陵としては東日本に初めてつくられた。陵墓内には北山杉が植えられ、大正天皇、昭和天皇などの陵がある。
白山神社,35.6441,139.27408,八王子八十八景No.49,廿里町４８ー１,平安時代の仁平4年（1154）の奥書のある経巻や銅鏡などが経塚から出土した。春には神社周辺や参道の桜も見事。
八王子車人形,35.67019,139.25519,八王子八十八景No.50,下恩方町1566,ロクロと呼ばれる箱車に腰掛け、一人一体の人形を操る人形芝居。江戸時代末期に考案され、西川古柳座が伝統を受け継ぎ、幅広い活動を行っている。
八王子城跡,35.65269,139.25643,八王子景観100選No.40、八王子八十八景No.51,元八王子町３丁目2664ー2,北条氏照が築城した北条氏最大の支城跡。豊臣秀吉に攻められ1590年に落城。御主殿跡虎口など一部が復元され、全域が国指定史跡となっている。
いちょう祭り,35.65131,139.30002,八王子八十八景No.52,並木町,11月下旬、甲州街道追分交差点以西のイチョウ並木を中心に行なわれる。通行手形を手に関所をめぐるオリエンテ－リング、パレ－ドなど様々な催しで賑う。
お諏訪さま,35.67767,139.28966,八王子八十八景No.53,諏訪町１,毎年8月26・27日に「まんじゅう祭り」が行なわれる諏訪神社。当日は四谷龍頭の舞（市指定無形民俗文化財）も舞われ、多くの人出で賑う。
お酉さま,35.66043,139.34001,八王子八十八景No.54,横山町２５ー３ 市守・大鳥神社,毎年11月の酉の日に、市守神社で行われる酉の市。境内では縁起物の熊手を売る店が立ち並び、甲州街道沿いに露店が出て賑う。
しょうがまつり,35.66208,139.34154,八王子八十八景No.55,新町５ー５,毎年9月の第1土曜日に行われる永福稲荷神社の例祭。しょうがを屋台一杯に盛り上げた露店が並ぶ。
高尾山節分会,35.6259,139.25028,八王子八十八景No.56,高尾町２１７７,高尾山薬王院では毎年節分の日に、芸能人・力士などや年男・年女による豆まきが行われ、多くの人々で賑う。
どんど焼き,35.66889,139.21696,八王子八十八景No.57,上恩方町２０３０,正月の門松やしめなわ等のお飾りを子供たちが集めて焼く小正月の火祭り。市内各所で行なわれている。
八王子まつり,35.66033,139.32875,八王子八十八景No.58,八幡町,8月第一金曜日を初日とする3日間、甲州街道を中心に、山車や神輿などのパレ－ド・関東太鼓大合戦・民謡流しなどが盛大に行われる。八王子最大の真夏の祭典。
百八灯,35.65173,139.31205,八王子八十八景No.59,散田町３丁目３９ー２,約2000本のロウソクを境内に立てて点火し、煩悩を拭い去るとともに豊作・家内安全を祈願する。御嶽神社で4月中旬に行われている。
火渡り祭,35.62947,139.26936,八王子八十八景No.60,高尾町２３９０ 高尾山自動車祈祷殿,例年3月第二日曜日に高尾山麓の祈祷殿前広場で行われる高尾山薬王院の行事。山伏などが家内安全・無病息災などを祈願し、火の上を次々に渡る。
南浅川の鯉のぼり,35.65008,139.29631,八王子景観100選No.16、八王子八十八景No.61,東浅川町,毎年5月3日から5日に行われる長房ふれあい端午まつりでは、南浅川をはさんで千匹の鯉のぼりが泳ぐ。
小泉家屋敷,35.6142,139.35882,八王子八十八景No.62、特に景観上重要な都選定歴史的建造物等,鑓水２１７８,明治11年に建てられた入り母屋造りかやぶき屋根の民家。当時の養蚕農家の様子をよく伝え、裏山を含めて都有形民俗文化財に指定されている。
甲州街道の老舗,35.66057,139.32569,八王子八十八景No.63,八幡町１１ー６,往時の繁栄を感じさせる土蔵造りなどの老舗が現在も甲州街道沿いに何軒か残っている。
サイエンスドーム八王子,35.6647,139.3278,八王子八十八景No.64,大横町９ー１３,直径21ｍのプラネタリウムド－ムなど、見て、触れて遊びながら科学が学べる市の文化施設。
スクエアビル,35.65731,139.33886,八王子八十八景No.66,旭町９ー１,八王子駅前の再開発ビル。多くの人々で賑わっており、八王子の新しいランドマ－クとなっている。
創価大学,35.69082,139.32696,八王子八十八景No.67,丹木町１丁目２３６,昭和46年開校。総面積約81万平方メ－トルの広大なキャンパスを持つ。
大学セミナーハウス,35.63035,139.36555,八王子景観100選No.82、八王子八十八景No.68、東京都選定歴史的建造物,下柚木１９８７ー１,大学のための新しい学問研究の場として昭和40年7月に開館した。現在では一般開放されている。
高尾駅駅舎,35.64222,139.28183,八王子八十八景No.69,高尾町,全国的にも珍しい木造の駅舎。高尾山の表玄関として、年間を通して観光客で賑う。
高尾山麓の老舗,35.63138,139.26995,八王子八十八景No.70,高尾町２２９２,山麓には高尾山登山客へのみやげ物屋などの古い建物が残っている。
中央大学,35.64024,139.40404,八王子八十八景No.71,東中野７４２ー１,昭和53年開設。約2万4千人の学生が通う
東京工科大学,35.62623,139.34053,八王子八十八景No.72,片倉町１４０４ー１,昭和61年開設。約36万平方メ－トルの敷地には、大学・専門学校がある。
東京都立大学,35.61725,139.37715,八王子景観100選No.78、八王子八十八景No.73,南大沢１丁目１,平成3年4月、目黒区より移転開設した。
東京薬科大学,35.63862,139.38395,八王子景観100選No.38、八王子八十八景No.74,堀之内１４３２ー１,昭和51年開設。自然に囲まれた煉瓦造りの校舎と薬用植物園、自然池などがある。
八王子市役所,35.66652,139.316,八王子八十八景No.75,元本郷町３丁目２４ー１,昭和58年に完成した事務棟10階、議会棟5階建ての庁舎。
ベルコリーヌ南大沢,35.61124,139.37146,八王子景観100選No.85、八王子八十八景No.76,南大沢５丁目９ー１,南欧の山岳都市をイメ－ジした多摩ニュ－タウンの住宅。景観に優れた建築物として表彰された。
みころも霊堂,35.63702,139.28228,八王子八十八景No.77,狭間町１９３３ー９,労働災害で殉じた人々のための慰霊堂。周辺は御衣公園と呼ばれており、菅原道真の像などがある。
やまゆり館,35.68653,139.29886,八王子八十八景No.78,川口町３８３８,公民館、図書館、市民センタ－が集合した市の複合施設。平成9年に開館した。
桑並木通り,35.6585,139.33938,八王子八十八景No.79、景観重要公共施設,横山町他,八王子駅からまっすぐ北に伸びる幅30ｍの大通り。沿道には商業ビルや業務ビルが建ち並び、周辺は活気に満ちている。
甲州街道（一般国道20号）,35.65147,139.30023,八王子景観100選No.19、八王子八十八景No.80、景観重要公共施設,並木町他,追分から高尾まで続く768本のイチョウの並木道。日本三大並木の一つといわれ八王子のシンボルとなっている。
高尾山ケーブルカー清滝駅前,35.63116,139.26704,八王子八十八景No.81,高尾町２２０５,日本一の急勾配を誇る高尾山ケ－ブルカ－の麓、清滝駅周辺は登山者などで常に賑う。
多摩都市モノレール,35.63358,139.42137,八王子八十八景No.82,東中野他,平成12年1月に上北台から多摩センタ－間が全線開通。多摩地域を南北に結ぶ新しい交通手段となっている。
中央自動車道,35.67706,139.34246,八王子八十八景No.83,宇津木町他,調布から八王子間が昭和42年に開通。週末には多くの車が甲州・信州方面の観光地などへ向かう。
西放射線ユーロード,35.65789,139.33692,八王子景観100選No.60、八王子八十八景No.84、景観重要公共施設,中町他,八王子駅北口から八日町方面に向かう歩行者専用の道。たくさんの店が建ち並び、多くの買い物客や学生たちで賑わっている。
八高線沿線,35.69079,139.36345,八王子八十八景No.85,平町、小宮町,ロ－カル線の雰囲気の沿線にはのどかな景色も残っており、写真撮影に来る人も多い。平成8年に電化された。
マルベリーブリッジ,35.65677,139.33921,八王子八十八景No.86,旭町,八王子駅北口の新しい立体広場。駅ビルと一体となって新たな都市空間を創り出している。
みずき通り,35.66045,139.33365,八王子八十八景No.87,本町他,甲州街道の八日町交差点から北へ入る通り。4月から5月には紅白のハナミズキが咲く。
南大沢・輪舞橋,35.61188,139.37837,八王子八十八景No.88,南大沢２丁目４,「太陽と月の出会い橋」をコンセプトにデザインされた南大沢駅近くの大きな丸い歩道橋。
